1 42875U 17042BC  21202.58710112  .00005927  00000-0  12105-3 0  9997
2 42875  96.8485  54.2682 0007799 303.5895  56.4611 15.46487969225685
1 42875U 17042BC  21202.91062786  .00006487  00000-0  13232-3 0  9995
2 42875  96.8484  54.5740 0007763 302.1303  57.9194 15.46492805225735
1 42875U 17042BC  21203.04003838  .00006354  00000-0  12963-3 0  9996
2 42875  96.8483  54.6963 0007753 301.5504  58.4989 15.46494219225758
1 42875U 17042BC  21203.29885900  .00006178  00000-0  12608-3 0  9991
2 42875  96.8483  54.9410 0007735 300.3899  59.6587 15.46497031225798
1 42875U 17042BC  21203.81649726  .00008248  00000-0  16767-3 0  9993
2 42875  96.8480  55.4302 0007703 298.0472  61.9999 15.46508664225873
1 42875U 17042BC  21204.52824613  .00007831  00000-0  15922-3 0  9991
2 42875  96.8477  56.1029 0007649 294.7880  65.2574 15.46518327225983
1 42875U 17042BC  21204.85176553  .00010158  00000-0  20595-3 0  9998
2 42875  96.8476  56.4086 0007630 293.3050  66.7397 15.46528095226031
1 42875U 17042BC  21205.11057883  .00013660  00000-0  27616-3 0  9994
2 42875  96.8475  56.6533 0007620 292.2239  67.8203 15.46540354226079
1 42875U 17042BC  21205.56349946  .00014632  00000-0  29552-3 0  9998
2 42875  96.8474  57.0814 0007599 290.1185  69.9248 15.46554261226149
1 42875U 17042BC  21206.53403288  .00010747  00000-0  21742-3 0  9992
2 42875  96.8471  57.9987 0007533 285.7258  74.3162 15.46576111226294
1 42875U 17042BC  21206.85754221  .00010590  00000-0  21424-3 0  9996
2 42875  96.8470  58.3044 0007537 284.3050  75.7364 15.46580767226348
1 42875U 17042BC  21207.56925990  .00008065  00000-0  16356-3 0  9990
2 42875  96.8470  58.9772 0007526 280.9631  79.0773 15.46587603226456
1 42875U 17042BC  21208.53977806  .00006646  00000-0  13504-3 0  9996
2 42875  96.8472  59.8944 0007502 276.8068  83.2329 15.46597429226609
1 42875U 17042BC  21208.86328241  .00006574  00000-0  13358-3 0  9992
2 42875  96.8473  60.2002 0007508 275.3355  84.7039 15.46601131226655
1 42875U 17042BC  21209.12208538  .00006512  00000-0  13232-3 0  9991
2 42875  96.8473  60.4449 0007520 274.1896  85.8496 15.46604434226695
1 42875U 17042BC  21209.38088755  .00006913  00000-0  14034-3 0  9992
2 42875  96.8474  60.6895 0007513 272.9314  87.1077 15.46608437226738
1 42875U 17042BC  21209.83379011  .00007041  00000-0  14288-3 0  9994
2 42875  96.8474  61.1177 0007510 270.7354  89.3036 15.46614427226807
1 42875U 17042BC  21210.22199076  .00007076  00000-0  14355-3 0  9993
2 42875  96.8475  61.4847 0007526 268.9651  91.0737 15.46619794226867
1 42875U 17042BC  21210.54549002  .00007294  00000-0  14789-3 0  9999
2 42875  96.8476  61.7905 0007529 267.4661  92.5728 15.46625025226910
1 42875U 17042BC  21210.86898823  .00007450  00000-0  15099-3 0  9991
2 42875  96.8476  62.0963 0007537 265.9042  94.1347 15.46630037226962
1 42875U 17042BC  21211.38658329  .00006728  00000-0  13649-3 0  9990
2 42875  96.8478  62.5856 0007554 263.4664  96.5727 15.46636969227040
1 42875U 17042BC  21211.83947659  .00007541  00000-0  15273-3 0  9996
2 42875  96.8479  63.0138 0007568 261.3810  98.6583 15.46645393227117
1 42875U 17042BC  21212.35706362  .00010780  00000-0  21745-3 0  9998
2 42875  96.8480  63.5032 0007578 259.0561 100.9838 15.46661689227199
1 42875U 17042BC  21212.87464661  .00011505  00000-0  23183-3 0  9992
2 42875  96.8481  63.9927 0007585 256.6825 103.3580 15.46675696227274
1 42875U 17042BC  21213.39222695  .00008111  00000-0  16394-3 0  9994
2 42875  96.8480  64.4821 0007605 254.2756 105.7657 15.46681534227350
1 42875U 17042BC  21214.03920006  .00007547  00000-0  15261-3 0  9991
2 42875  96.8480  65.0938 0007636 251.2677 108.7746 15.46690909227458
1 42875U 17042BC  21215.13904806  .00009876  00000-0  19906-3 0  9990
2 42875  96.8479  66.1338 0007667 246.2351 113.8096 15.46706299227623
1 42875U 17042BC  21215.85071005  .00006700  00000-0  13560-3 0  9998
2 42875  96.8477  66.8067 0007703 242.9124 117.1341 15.46709067227737
1 42875U 17042BC  21216.49767097  .00006592  00000-0  13339-3 0  9995
2 42875  96.8475  67.4184 0007730 239.9441 120.1044 15.46717877227833
1 42875U 17042BC  21216.82115036  .00006215  00000-0  12584-3 0  9995
2 42875  96.8474  67.7242 0007737 238.5166 121.5330 15.46721245227888
1 42875U 17042BC  21217.33871613  .00004969  00000-0  10094-3 0  9990
2 42875  96.8473  68.2135 0007767 236.1669 123.8843 15.46725055227965
1 42875U 17042BC  21217.85628017  .00005117  00000-0  10388-3 0  9997
2 42875  96.8470  68.7028 0007790 233.8699 126.1832 15.46730766228040
1 42875U 17042BC  21218.30914759  .00004369  00000-0  88921-4 0  9996
2 42875  96.8470  69.1310 0007820 231.8384 128.2163 15.46733757228113
1 42875U 17042BC  21218.56792844  .00004461  00000-0  90753-4 0  9992
2 42875  96.8469  69.3757 0007837 230.7272 129.3285 15.46736447228150
1 42875U 17042BC  21219.08548811  .00005506  00000-0  11160-3 0  9998
2 42875  96.8466  69.8648 0007883 228.3311 131.7266 15.46743722228238
1 42875U 17042BC  21219.53834533  .00012339  00000-0  24770-3 0  9990
2 42875  96.8464  70.2929 0007906 226.4478 133.6117 15.46765507228302
1 42875U 17042BC  21220.31466673  .00010432  00000-0  20958-3 0  9990
2 42875  96.8463  71.0268 0007976 223.2951 136.7674 15.46784958228420
1 42875U 17042BC  21220.57343901  .00008405  00000-0  16917-3 0  9993
2 42875  96.8462  71.2715 0008002 222.2493 137.8142 15.46788580228460
1 42875U 17042BC  21220.83221095  .00008496  00000-0  17097-3 0  9991
2 42875  96.8462  71.5161 0008018 221.1508 138.9140 15.46792249228502
1 42875U 17042BC  21221.15567514  .00007244  00000-0  14602-3 0  9995
2 42875  96.8461  71.8218 0008049 219.8271 140.2390 15.46795522228557
1 42875U 17042BC  21221.86729474  .00006090  00000-0  12299-3 0  9996
2 42875  96.8460  72.4945 0008120 216.8444 143.2250 15.46800825228662
1 42875U 17042BC  21222.32014156  .00005083  00000-0  10292-3 0  9994
2 42875  96.8459  72.9226 0008180 215.0273 145.0441 15.46804570228735
1 42875U 17042BC  21222.83767968  .00004291  00000-0  87134-4 0  9996
2 42875  96.8460  73.4119 0008240 212.8675 147.2065 15.46808044228817
1 42875U 17042BC  21223.09644810  .00004153  00000-0  84365-4 0  9995
2 42875  96.8460  73.6565 0008268 211.8159 148.2594 15.46810335228858
1 42875U 17042BC  21223.35521593  .00004963  00000-0  10049-3 0  9992
2 42875  96.8461  73.9012 0008297 210.7375 149.3391 15.46814360228892
1 42875U 17042BC  21223.80805895  .00004783  00000-0  96900-4 0  9993
2 42875  96.8462  74.3294 0008343 208.9433 151.1356 15.46818326228962
1 42875U 17042BC  21224.13151744  .00004754  00000-0  96313-4 0  9993
2 42875  96.8462  74.6352 0008380 207.5669 152.5138 15.46821438229015
1 42875U 17042BC  21224.51966715  .00004483  00000-0  90906-4 0  9998
2 42875  96.8462  75.0021 0008418 205.9622 154.1208 15.46824233229074
1 42875U 17042BC  21225.49003712  .00004755  00000-0  96287-4 0  9995
2 42875  96.8463  75.9197 0008524 201.9455 158.1432 15.46833551229229
1 42875U 17042BC  21225.81349252  .00004839  00000-0  97937-4 0  9999
2 42875  96.8463  76.2255 0008572 200.5979 159.4928 15.46836659229278
1 42875U 17042BC  21226.52509236  .00004742  00000-0  95978-4 0  9994
2 42875  96.8464  76.8984 0008649 197.6918 162.4034 15.46843001229381
1 42875U 17042BC  21226.84854600  .00004682  00000-0  94788-4 0  9998
2 42875  96.8465  77.2043 0008698 196.2793 163.8180 15.46845611229435
1 42875U 17042BC  21227.56014124  .00005111  00000-0  10329-3 0  9993
2 42875  96.8465  77.8772 0008777 193.4637 166.6382 15.46853265229545
1 42875U 17042BC  21227.88359274  .00004966  00000-0  10039-3 0  9991
2 42875  96.8466  78.1831 0008822 192.1243 167.9797 15.46855911229595
1 42875U 17042BC  21228.33642328  .00005733  00000-0  11561-3 0  9991
2 42875  96.8466  78.6114 0008877 190.3362 169.7708 15.46861939229663
1 42875U 17042BC  21228.85394238  .00005621  00000-0  11336-3 0  9998
2 42875  96.8465  79.1008 0008934 188.2774 171.8332 15.46866932229741
1 42875U 17042BC  21229.04801138  .00005769  00000-0  11629-3 0  9990
2 42875  96.8465  79.2843 0008956 187.5297 172.5822 15.46869566229776
1 42875U 17042BC  21229.56552766  .00005372  00000-0  10838-3 0  9998
2 42875  96.8465  79.7736 0009016 185.5202 174.5951 15.46874692229854
1 42875U 17042BC  21229.88897324  .00006520  00000-0  13117-3 0  9994
2 42875  96.8464  80.0794 0009048 184.3503 175.7671 15.46881318229909
1 42875U 17042BC  21230.08304034  .00006668  00000-0  13408-3 0  9995
2 42875  96.8464  80.2630 0009070 183.6622 176.4564 15.46884369229930
1 42875U 17042BC  21230.34179367  .00010387  00000-0  20780-3 0  9997
2 42875  96.8463  80.5077 0009092 182.6223 177.4982 15.46895924229975
1 42875U 17042BC  21230.79461074  .00011478  00000-0  22933-3 0  9999
2 42875  96.8462  80.9359 0009141 180.9819 179.1416 15.46908429230044
1 42875U 17042BC  21231.57086442  .00008139  00000-0  16309-3 0  9998
2 42875  96.8460  81.6699 0009216 178.2177 181.9108 15.46919502230163
1 42875U 17042BC  21231.89430169  .00008777  00000-0  17568-3 0  9998
2 42875  96.8460  81.9757 0009255 177.0705 183.0602 15.46925775230215
1 42875U 17042BC  21232.54117444  .00006844  00000-0  13735-3 0  9994
2 42875  96.8457  82.5872 0009318 174.7305 185.4046 15.46931283230316
1 42875U 17042BC  21232.86460936  .00008119  00000-0  16257-3 0  9995
2 42875  96.8456  82.8930 0009350 173.5944 186.5429 15.46937260230368
1 42875U 17042BC  21233.05866989  .00007521  00000-0  15072-3 0  9995
2 42875  96.8455  83.0765 0009366 172.9194 187.2192 15.46939145230395
1 42875U 17042BC  21233.31741692  .00006061  00000-0  12179-3 0  9990
2 42875  96.8454  83.3211 0009407 172.0957 188.0444 15.46939826230437
1 42875U 17042BC  21233.89959544  .00006931  00000-0  13897-3 0  9994
2 42875  96.8452  83.8714 0009477 170.0365 190.1076 15.46948994230527
1 42875U 17042BC  21234.35239929  .00005939  00000-0  11931-3 0  9998
2 42875  96.8451  84.2995 0009540 168.4820 191.6652 15.46952808230592
1 42875U 17042BC  21234.80520166  .00005763  00000-0  11580-3 0  9999
2 42875  96.8450  84.7275 0009586 166.8908 193.2594 15.46957929230666
